CCSDS_OMM_VERS = 2.0
CREATION_DATE  = 
ORIGINATOR     = 

OBJECT_NAME    = SOYUZ-MS 28
OBJECT_ID      = 2025-275A
CENTER_NAME    = EARTH
REF_FRAME      = TEME
TIME_SYSTEM    = UTC
MEAN_ELEMENT_THEORY = SGP/SGP4

EPOCH          = 2025-12-28T20:32:34.979424
MEAN_MOTION    = 15.49920091
ECCENTRICITY   = .00032554
INCLINATION    = 51.6322
RA_OF_ASC_NODE = 62.6586
ARG_OF_PERICENTER = 316.0304
MEAN_ANOMALY   = 44.0425

EPHEMERIS_TYPE = 0
CLASSIFICATION_TYPE = U
NORAD_CAT_ID   = 66664
ELEMENT_SET_NO = 999
REV_AT_EPOCH   = 128
BSTAR          = .320065E-3
MEAN_MOTION_DOT = .17802E-3
MEAN_MOTION_DDOT = 0

CCSDS_OMM_VERS = 2.0
CREATION_DATE  = 
ORIGINATOR     = 

OBJECT_NAME    = 1998-067XS
OBJECT_ID      = 1998-067XS
CENTER_NAME    = EARTH
REF_FRAME      = TEME
TIME_SYSTEM    = UTC
MEAN_ELEMENT_THEORY = SGP/SGP4

EPOCH          = 2025-12-28T04:38:05.811648
MEAN_MOTION    = 15.51427236
ECCENTRICITY   = .0002613
INCLINATION    = 51.6324
RA_OF_ASC_NODE = 65.7333
ARG_OF_PERICENTER = 281.7047
MEAN_ANOMALY   = 78.3649

EPHEMERIS_TYPE = 0
CLASSIFICATION_TYPE = U
NORAD_CAT_ID   = 66906
ELEMENT_SET_NO = 999
REV_AT_EPOCH   = 401
BSTAR          = .58581E-3
MEAN_MOTION_DOT = .34866E-3
MEAN_MOTION_DDOT = 0

CCSDS_OMM_VERS = 2.0
CREATION_DATE  = 
ORIGINATOR     = 

OBJECT_NAME    = 1998-067XT
OBJECT_ID      = 1998-067XT
CENTER_NAME    = EARTH
REF_FRAME      = TEME
TIME_SYSTEM    = UTC
MEAN_ELEMENT_THEORY = SGP/SGP4

EPOCH          = 2025-12-29T04:55:55.911936
MEAN_MOTION    = 15.53618513
ECCENTRICITY   = .00038774
INCLINATION    = 51.6313
RA_OF_ASC_NODE = 60.4941
ARG_OF_PERICENTER = 329.1285
MEAN_ANOMALY   = 30.9477

EPHEMERIS_TYPE = 0
CLASSIFICATION_TYPE = U
NORAD_CAT_ID   = 66907
ELEMENT_SET_NO = 999
REV_AT_EPOCH   = 417
BSTAR          = .13858448E-2
MEAN_MOTION_DOT = .90626E-3
MEAN_MOTION_DDOT = 0

CCSDS_OMM_VERS = 2.0
CREATION_DATE  = 
ORIGINATOR     = 

OBJECT_NAME    = 1998-067XU
OBJECT_ID      = 1998-067XU
CENTER_NAME    = EARTH
REF_FRAME      = TEME
TIME_SYSTEM    = UTC
MEAN_ELEMENT_THEORY = SGP/SGP4

EPOCH          = 2025-12-28T21:11:05.553024
MEAN_MOTION    = 15.53556067
ECCENTRICITY   = .00039336
INCLINATION    = 51.6310
RA_OF_ASC_NODE = 62.0877
ARG_OF_PERICENTER = 323.7931
MEAN_ANOMALY   = 36.2792

EPHEMERIS_TYPE = 0
CLASSIFICATION_TYPE = U
NORAD_CAT_ID   = 66908
ELEMENT_SET_NO = 999
REV_AT_EPOCH   = 412
BSTAR          = .11892623E-2
MEAN_MOTION_DOT = .77397E-3
MEAN_MOTION_DDOT = 0

CCSDS_OMM_VERS = 2.0
CREATION_DATE  = 
ORIGINATOR     = 

OBJECT_NAME    = SILVERSAT
OBJECT_ID      = 1998-067XV
CENTER_NAME    = EARTH
REF_FRAME      = TEME
TIME_SYSTEM    = UTC
MEAN_ELEMENT_THEORY = SGP/SGP4

EPOCH          = 2025-12-28T21:07:41.920320
MEAN_MOTION    = 15.53938859
ECCENTRICITY   = .00039381
INCLINATION    = 51.6305
RA_OF_ASC_NODE = 62.0720
ARG_OF_PERICENTER = 330.5413
MEAN_ANOMALY   = 29.5355

EPHEMERIS_TYPE = 0
CLASSIFICATION_TYPE = U
NORAD_CAT_ID   = 66909
ELEMENT_SET_NO = 999
REV_AT_EPOCH   = 412
BSTAR          = .14962292E-2
MEAN_MOTION_DOT = .99141E-3
MEAN_MOTION_DDOT = 0

CCSDS_OMM_VERS = 2.0
CREATION_DATE  = 
ORIGINATOR     = 

OBJECT_NAME    = 1998-067XW
OBJECT_ID      = 1998-067XW
CENTER_NAME    = EARTH
REF_FRAME      = TEME
TIME_SYSTEM    = UTC
MEAN_ELEMENT_THEORY = SGP/SGP4

EPOCH          = 2025-12-28T21:05:41.507232
MEAN_MOTION    = 15.53800298
ECCENTRICITY   = .00035915
INCLINATION    = 51.6305
RA_OF_ASC_NODE = 62.0627
ARG_OF_PERICENTER = 300.2223
MEAN_ANOMALY   = 59.8411

EPHEMERIS_TYPE = 0
CLASSIFICATION_TYPE = U
NORAD_CAT_ID   = 66910
ELEMENT_SET_NO = 999
REV_AT_EPOCH   = 412
BSTAR          = .13683515E-2
MEAN_MOTION_DOT = .90062E-3
MEAN_MOTION_DDOT = 0

CCSDS_OMM_VERS = 2.0
CREATION_DATE  = 
ORIGINATOR     = 

OBJECT_NAME    = 1998-067XX
OBJECT_ID      = 1998-067XX
CENTER_NAME    = EARTH
REF_FRAME      = TEME
TIME_SYSTEM    = UTC
MEAN_ELEMENT_THEORY = SGP/SGP4

EPOCH          = 2025-12-28T20:58:10.429248
MEAN_MOTION    = 15.54443856
ECCENTRICITY   = .0003332
INCLINATION    = 51.6302
RA_OF_ASC_NODE = 62.0283
ARG_OF_PERICENTER = 311.4329
MEAN_ANOMALY   = 48.6375

EPHEMERIS_TYPE = 0
CLASSIFICATION_TYPE = U
NORAD_CAT_ID   = 66911
ELEMENT_SET_NO = 999
REV_AT_EPOCH   = 411
BSTAR          = .16383213E-2
MEAN_MOTION_DOT = .110783E-2
MEAN_MOTION_DDOT = 0

CCSDS_OMM_VERS = 2.0
CREATION_DATE  = 
ORIGINATOR     = 

OBJECT_NAME    = 1998-067XY
OBJECT_ID      = 1998-067XY
CENTER_NAME    = EARTH
REF_FRAME      = TEME
TIME_SYSTEM    = UTC
MEAN_ELEMENT_THEORY = SGP/SGP4

EPOCH          = 2025-12-29T05:05:25.695744
MEAN_MOTION    = 15.52839707
ECCENTRICITY   = .00039695
INCLINATION    = 51.6316
RA_OF_ASC_NODE = 60.5380
ARG_OF_PERICENTER = 318.2962
MEAN_ANOMALY   = 41.7725

EPHEMERIS_TYPE = 0
CLASSIFICATION_TYPE = U
NORAD_CAT_ID   = 66912
ELEMENT_SET_NO = 999
REV_AT_EPOCH   = 416
BSTAR          = .11007765E-2
MEAN_MOTION_DOT = .69692E-3
MEAN_MOTION_DDOT = 0

